
# Worst residual: 4.11 km
# MJD 60169.000000 (2023 Aug 13  0:00)
1967-040F = NORAD 02770 = Transtage 10
1 02770U 67040F   23225.49919926  .00000000  00000-0  00000-0 0 18154
2 02770 016.2644 256.3411 8191709 279.5152 139.3376 00.50950959    03

# Worst residual: 7.63 km
# MJD 60170.000000 (2023 Aug 14  0:00)
1967-040F = NORAD 02770 = Transtage 10
1 02770U 67040F   23226.49919926  .00000000  00000-0  00000-0 0 18155
2 02770 016.2662 256.2601 8190562 279.6230 322.7151 00.50950592    09

# Worst residual: 3.29 km
# MJD 60171.000000 (2023 Aug 15  0:00)
1967-040F = NORAD 02770 = Transtage 10
1 02770U 67040F   23227.49919926  .00000000  00000-0  00000-0 0 18156
2 02770 016.2665 256.1611 8190962 279.7497 146.0859 00.50949487    05

# Worst residual: 10.73 km
# MJD 60172.000000 (2023 Aug 16  0:00)
1967-040F = NORAD 02770 = Transtage 10
1 02770U 67040F   23228.49919926  .00000000  00000-0  00000-0 0 18157
2 02770 016.2659 256.1224 8189492 279.8135 329.4717 00.50941519    02

# Worst residual: 3.66 km
# MJD 60173.000000 (2023 Aug 17  0:00)
1967-040F = NORAD 02770 = Transtage 10
1 02770U 67040F   23229.49919926  .00000000  00000-0  00000-0 0 18158
2 02770 016.2660 256.0443 8189311 279.9202 152.8468 00.50947911    05

# Worst residual: 11.99 km
# MJD 60174.000000 (2023 Aug 18  0:00)
1967-040F = NORAD 02770 = Transtage 10
1 02770U 67040F   23230.49919926  .00000000  00000-0  00000-0 0 18150
2 02770 016.2641 256.0212 8188212 279.9642 336.2515 00.50933411    06

# Worst residual: 2.96 km
# MJD 60175.000000 (2023 Aug 19  0:00)
1967-040F = NORAD 02770 = Transtage 10
1 02770U 67040F   23231.49919926  .00000000  00000-0  00000-0 0 18151
2 02770 016.2639 255.9515 8187682 280.0612 159.6328 00.50946310    08

# Worst residual: 12.46 km
# MJD 60176.000000 (2023 Aug 20  0:00)
1967-040F = NORAD 02770 = Transtage 10
1 02770U 67040F   23232.49919926  .00000000  00000-0  00000-0 0 18152
2 02770 016.2636 255.9063 8187334 280.1264 343.0418 00.50933763    08

# Worst residual: 3.35 km
# MJD 60177.000000 (2023 Aug 21  0:00)
1967-040F = NORAD 02770 = Transtage 10
1 02770U 67040F   23233.49919926  .00000000  00000-0  00000-0 0 18153
2 02770 016.2632 255.8249 8186868 280.2327 166.4282 00.50944903    05

# Worst residual: 11.86 km
# MJD 60178.000000 (2023 Aug 22  0:00)
1967-040F = NORAD 02770 = Transtage 10
1 02770U 67040F   23234.49919926  .00000000  00000-0  00000-0 0 18154
2 02770 016.2667 255.7355 8186713 280.3458 349.8175 00.50943510    06

# Worst residual: 3.47 km
# MJD 60179.000000 (2023 Aug 23  0:00)
1967-040F = NORAD 02770 = Transtage 10
1 02770U 67040F   23235.49919926  .00000000  00000-0  00000-0 0 18155
2 02770 016.2664 255.6419 8186625 280.4668 173.1988 00.50945702    04

# Worst residual: 6.70 km
# MJD 60180.000000 (2023 Aug 24  0:00)
1967-040F = NORAD 02770 = Transtage 10
1 02770U 67040F   23236.49919926  .00000000  00000-0  00000-0 0 18156
2 02770 016.2717 255.5306 8185144 280.6069 356.5542 00.50959197    05

# Worst residual: 2.38 km
# MJD 60181.000000 (2023 Aug 25  0:00)
1967-040F = NORAD 02770 = Transtage 10
1 02770U 67040F   23237.49919926  .00000000  00000-0  00000-0 0 18157
2 02770 016.2714 255.4458 8185146 280.7222 179.9338 00.50949516    07

# Worst residual: 6.08 km
# MJD 60182.000000 (2023 Aug 26  0:00)
1967-040F = NORAD 02770 = Transtage 10
1 02770U 67040F   23238.49919926  .00000000  00000-0  00000-0 0 18158
2 02770 016.2724 255.3691 8181652 280.8269 003.2786 00.50967761    04

# Worst residual: 3.87 km
# MJD 60183.000000 (2023 Aug 27  0:00)
1967-040F = NORAD 02770 = Transtage 10
1 02770U 67040F   23239.49919926  .00000000  00000-0  00000-0 0 18159
2 02770 016.2707 255.2907 8182212 280.9305 186.6682 00.50956155    05

# Worst residual: 6.69 km
# MJD 60184.000000 (2023 Aug 28  0:00)
1967-040F = NORAD 02770 = Transtage 10
1 02770U 67040F   23240.49919926  .00000000  00000-0  00000-0 0 18151
2 02770 016.2663 255.2529 8178572 280.9887 010.0558 00.50959122    04

# Worst residual: 1.29 km
# MJD 60185.000000 (2023 Aug 29  0:00)
1967-040F = NORAD 02770 = Transtage 10
1 02770U 67040F   23241.49919926  .00000000  00000-0  00000-0 0 18152
2 02770 016.2624 255.0837 8180550 281.1724 193.4266 00.50955244    06

# Worst residual: 9.02 km
# MJD 60186.000000 (2023 Aug 30  0:00)
1967-040F = NORAD 02770 = Transtage 10
1 02770U 67040F   23242.49919926  .00000000  00000-0  00000-0 0 18153
2 02770 016.2675 254.9769 8180011 281.3029 016.8541 00.50947079    07

# Worst residual: 6.58 km
# MJD 60187.000000 (2023 Aug 31  0:00)
1967-040F = NORAD 02770 = Transtage 10
1 02770U 67040F   23243.49919926  .00000000  00000-0  00000-0 0 18154
2 02770 016.2643 254.6747 8180727 281.6333 200.1347 00.50934250    09

# Worst residual: 13.66 km
# MJD 60188.000000 (2023 Sep  1  0:00)
1967-040F = NORAD 02770 = Transtage 10
1 02770U 67040F   23244.49919926  .00000000  00000-0  00000-0 0 18155
2 02770 016.2870 254.4434 8181795 281.9068 023.4889 00.50945011    00

# Worst residual: 8.36 km
# MJD 60189.000000 (2023 Sep  2  0:00)
1967-040F = NORAD 02770 = Transtage 10
1 02770U 67040F   23245.49919926  .00000000  00000-0  00000-0 0 18156
2 02770 016.2860 254.2592 8177525 282.1390 206.7892 00.50924671    08

# Worst residual: 14.10 km
# MJD 60190.000000 (2023 Sep  3  0:00)
1967-040F = NORAD 02770 = Transtage 10
1 02770U 67040F   23246.49919926  .00000000  00000-0  00000-0 0 18157
2 02770 016.2991 254.0990 8175373 282.3366 030.0681 00.50940406    05

# Worst residual: 6.14 km
# MJD 60191.000000 (2023 Sep  4  0:00)
1967-040F = NORAD 02770 = Transtage 10
1 02770U 67040F   23247.49919926  .00000000  00000-0  00000-0 0 18158
2 02770 016.2977 254.0440 8171902 282.4211 213.4886 00.50943532    00

# Worst residual: 9.00 km
# MJD 60192.000000 (2023 Sep  5  0:00)
1967-040F = NORAD 02770 = Transtage 10
1 02770U 67040F   23248.49919926  .00000000  00000-0  00000-0 0 18159
2 02770 016.2965 253.9724 8168553 282.5129 036.8263 00.50941035    09

# Worst residual: 2.37 km
# MJD 60193.000000 (2023 Sep  6  0:00)
1967-040F = NORAD 02770 = Transtage 10
1 02770U 67040F   23249.49919926  .00000000  00000-0  00000-0 0 18150
2 02770 016.2954 253.8827 8168826 282.6162 220.2588 00.50954452    07

# Worst residual: 7.41 km
# MJD 60194.000000 (2023 Sep  7  0:00)
1967-040F = NORAD 02770 = Transtage 10
1 02770U 67040F   23250.49919926  .00000000  00000-0  00000-0 0 18152
2 02770 016.2961 253.7944 8166499 282.7240 043.6447 00.50948193    02

# Worst residual: 1.62 km
# MJD 60195.000000 (2023 Sep  8  0:00)
1967-040F = NORAD 02770 = Transtage 10
1 02770U 67040F   23251.49919926  .00000000  00000-0  00000-0 0 18153
2 02770 016.2957 253.6766 8168016 282.8596 227.0248 00.50952995    02

# Worst residual: 5.26 km
# MJD 60196.000000 (2023 Sep  9  0:00)
1967-040F = NORAD 02770 = Transtage 10
1 02770U 67040F   23252.49919926  .00000000  00000-0  00000-0 0 18154
2 02770 016.3003 253.5671 8166500 282.9944 050.4185 00.50951457    03
